{
  "norad_id": 66380,
  "name": "STARLINK-35139",
  "history": [
    {
      "epoch": "2026-03-28T19:36:53.759232Z",
      "apogee_km": 476.32751900243875,
      "perigee_km": 474.26861004035527,
      "latitude_deg": 2.0029174446941556e-05,
      "longitude_deg": 7.608725550107625,
      "height_km": 475.97474549571297,
      "semi_major_axis_km": 6853.435064521397,
      "eccentricity": 0.00015021,
      "inclination_deg": 53.159,
      "raan_deg": 128.065,
      "arg_perigee_deg": 77.6032,
      "mean_anomaly_deg": 282.5137,
      "mean_motion_rev_day": 15.30172204
    }
  ]
}