{"fetched_at":"2026-03-29T16:36:15Z","count":15609,"tles":[{"name":"STARLINK-35139","line1":"1 66380U 25257A   26087.81728888  .00020552  00000+0  70471-3 0  9992","line2":"2 66380  53.1590 128.0650 0001502  77.6032 282.5137 15.30172204 22606","category":"Starlink"}]}